[{"OBJECT_NAME":"STARLINK-4067","OBJECT_ID":"2022-053N","EPOCH":"2026-03-09T11:12:07.241472","MEAN_MOTION":15.08830839,"ECCENTRICITY":0.00013368,"INCLINATION":53.2172,"RA_OF_ASC_NODE":155.1239,"ARG_OF_PERICENTER":78.69,"MEAN_ANOMALY":281.4243,"EPHEMERIS_TYPE":0,"CLASSIFICATION_TYPE":"U","NORAD_CAT_ID":52668,"ELEMENT_SET_NO":999,"REV_AT_EPOCH":21101,"BSTAR":0.00011970545,"MEAN_MOTION_DOT":1.617e-5,"MEAN_MOTION_DDOT":0},{"OBJECT_NAME":"CZ-4B DEB","OBJECT_ID":"2008-053J","EPOCH":"2026-03-09T11:59:22.469568","MEAN_MOTION":15.1637526,"ECCENTRICITY":0.00601661,"INCLINATION":97.7872,"RA_OF_ASC_NODE":170.5072,"ARG_OF_PERICENTER":304.792,"MEAN_ANOMALY":54.7659,"EPHEMERIS_TYPE":0,"CLASSIFICATION_TYPE":"U","NORAD_CAT_ID":35573,"ELEMENT_SET_NO":999,"REV_AT_EPOCH":91868,"BSTAR":0.0017688276,"MEAN_MOTION_DOT":0.00036031,"MEAN_MOTION_DDOT":0}]
